H1 CPF 01  gfz 2021 12 05 01  8391 tandemx   
H2 1003001  6202 36605    2021 12 05 00 59 42 2021 12 10 00 00 42   120 1 1  0 0 0
H9
10 0 59555  12942.000000  0   -1922663.790  -2421573.232  -6162820.656
10 0 59555  13062.000000  0   -2619780.271  -2823150.181  -5718758.042
10 0 59555  13182.000000  0   -3277933.034  -3163880.551  -5174754.534
10 0 59555  13302.000000  0   -3884534.341  -3438588.318  -4540226.950
10 0 59555  13422.000000  0   -4427785.858  -3643442.386  -3826189.909
10 0 59555  13542.000000  0   -4896912.491  -3776013.345  -3045074.290
10 0 59555  13662.000000  0   -5282382.826  -3835303.531  -2210517.497
10 0 59555  13782.000000  0   -5576110.026  -3821748.518  -1337128.020
10 0 59555  13902.000000  0   -5771627.893  -3737189.447   -440229.024
10 0 59555  14022.000000  0   -5864237.635  -3584816.667    464414.616
10 0 59555  14142.000000  0   -5851121.384  -3369085.935   1360880.715
10 0 59555  14262.000000  0   -5731417.221  -3095607.811   2233380.261
10 0 59555  14382.000000  0   -5506253.538  -2771012.878   3066544.413
10 0 59555  14502.000000  0   -5178743.954  -2402798.508   3845702.547
10 0 59555  14622.000000  0   -4753941.546  -1999158.937   4557147.157
10 0 59555  14742.000000  0   -4238753.625  -1568803.558   5188376.630
10 0 59555  14862.000000  0   -3641822.168  -1120770.169   5728313.018
10 0 59555  14982.000000  0   -2973372.177   -664235.794   6167494.181
10 0 59555  15102.000000  0   -2245028.946   -208328.116   6498235.782
10 0 59555  15222.000000  0   -1469609.058    238056.731   6714758.684
10 0 59555  15342.000000  0    -660891.788    666425.671   6813283.280
10 0 59555  15462.000000  0     166626.373   1068849.017   6792091.310
10 0 59555  15582.000000  0     997990.912   1438106.657   6651553.905
10 0 59555  15702.000000  0    1818058.820   1767817.926   6394125.452
10 0 59555  15822.000000  0    2611773.525   2052551.925   6024302.970
10 0 59555  15942.000000  0    3364441.737   2287917.634   5548553.234
10 0 59555  16062.000000  0    4062008.672   2470632.465   4975205.538
10 0 59555  16182.000000  0    4691324.100   2598568.196   4314311.609
10 0 59555  16302.000000  0    5240396.855   2670773.772   3577475.835
10 0 59555  16422.000000  0    5698634.136   2687472.803   2777652.630
10 0 59555  16542.000000  0    6057051.793   2650035.200   1928917.282
10 0 59555  16662.000000  0    6308458.982   2560926.285   1046216.004
10 0 59555  16782.000000  0    6447608.513   2423631.625    145095.746
10 0 59555  16902.000000  0    6471307.672   2242560.234   -758578.892
10 0 59555  17022.000000  0    6378485.920   2022928.085  -1648913.811
10 0 59555  17142.000000  0    6170222.915   1770626.974  -2510270.994
10 0 59555  17262.000000  0    5849733.575   1492080.362  -3327550.876
10 0 59555  17382.000000  0    5422309.141   1194089.560  -4086460.732
10 0 59555  17502.000000  0    4895217.475    883675.460  -4773764.785
10 0 59555  17622.000000  0    4277566.497    567920.307  -5377509.968
10 0 59555  17742.000000  0    3580136.342    253812.711  -5887225.648
10 0 59555  17862.000000  0    2815182.836    -51900.601  -6294095.531
10 0 59555  17982.000000  0    1996216.080   -342853.829  -6591098.781
10 0 59555  18102.000000  0    1137761.167   -613189.445  -6773119.591
10 0 59555  18222.000000  0     255102.676   -857671.815  -6837027.337
10 0 59555  18342.000000  0    -635983.560  -1071784.638  -6781723.329
10 0 59555  18462.000000  0   -1519505.010  -1251811.718  -6608157.467
10 0 59555  18582.000000  0   -2379533.160  -1394900.096  -6319314.201
10 0 59555  18702.000000  0   -3200484.212  -1499104.367  -5920165.518
10 0 59555  18822.000000  0   -3967396.023  -1563412.157  -5417595.359
10 0 59555  18942.000000  0   -4666201.482  -1587750.475  -4820293.080
10 0 59555  19062.000000  0   -5283990.081  -1572971.870  -4138614.186
10 0 59555  19182.000000  0   -5809253.361  -1520820.894  -3384411.660
10 0 59555  19302.000000  0   -6232109.880  -1433881.299  -2570837.823
10 0 59555  19422.000000  0   -6544502.792  -1315504.253  -1712119.192
10 0 59555  19542.000000  0   -6740365.337  -1169719.291   -823308.524
10 0 59555  19662.000000  0   -6815749.859  -1001129.746     79982.450
10 0 59555  19782.000000  0   -6768915.094   -814794.064    981863.813
10 0 59555  19902.000000  0   -6600369.535   -616097.776   1866455.181
10 0 59555  20022.000000  0   -6312869.319   -410618.701   2718174.519
10 0 59555  20142.000000  0   -5911370.802   -203988.477   3522021.328
10 0 59555  20262.000000  0   -5402938.243     -1754.051   4263847.991
10 0 59555  20382.000000  0   -4796609.593    190756.349   4930612.456
10 0 59555  20502.000000  0   -4103225.510    368560.394   5510607.213
10 0 59555  20622.000000  0   -3335226.499    527139.173   5993662.519
10 0 59555  20742.000000  0   -2506420.757    662541.481   6371320.692
10 0 59555  20862.000000  0   -1631729.336    771473.158   6636978.733
10 0 59555  20982.000000  0    -726912.463    851370.857   6785997.851
10 0 59555  21102.000000  0     191715.940    900457.780   6815778.233
10 0 59555  21222.000000  0    1107581.640    917780.763   6725801.109
10 0 59555  21342.000000  0    2004147.905    903228.783   6517637.360
10 0 59555  21462.000000  0    2865213.082    857531.955   6194922.036
10 0 59555  21582.000000  0    3675204.252    782241.048   5763295.632
10 0 59555  21702.000000  0    4419461.796    679688.152   5230310.379
10 0 59555  21822.000000  0    5084508.895    552928.596   4605304.539
10 0 59555  21942.000000  0    5658303.733    405665.008   3899245.377
10 0 59555  22062.000000  0    6130467.910    242156.469   3124539.697
10 0 59555  22182.000000  0    6492484.199     67113.943   2294815.446
10 0 59555  22302.000000  0    6737858.958   -114417.514   1424680.194
10 0 59555  22422.000000  0    6862247.405   -297184.853    529459.161
10 0 59555  22542.000000  0    6863535.776   -475858.319   -375082.186
10 0 59555  22662.000000  0    6741878.501   -645165.941  -1273025.415
10 0 59555  22782.000000  0    6499688.872   -800026.860  -2148587.923
10 0 59555  22902.000000  0    6141584.342   -935679.984  -2986407.794
10 0 59555  23022.000000  0    5674288.495  -1047805.004  -3771817.746
10 0 59555  23142.000000  0    5106492.759  -1132632.445  -4491103.140
10 0 59555  23262.000000  0    4448682.284  -1187039.873  -5131738.466
10 0 59555  23382.000000  0    3712931.541  -1208633.236  -5682599.399
10 0 59555  23502.000000  0    2912673.245  -1195811.914  -6134147.027
10 0 59555  23622.000000  0    2062447.297  -1147815.107  -6478581.714
10 0 59555  23742.000000  0    1177634.809  -1064748.876  -6709966.687
10 0 59555  23862.000000  0     274181.605   -947595.530  -6824320.070
10 0 59555  23982.000000  0    -631684.697   -798203.661  -6819675.937
10 0 59555  24102.000000  0   -1523739.185   -619259.527  -6696114.163
10 0 59555  24222.000000  0   -2386043.939   -414239.763  -6455759.285
10 0 59555  24342.000000  0   -3203226.141   -187346.469  -6102746.622
10 0 59555  24462.000000  0   -3960746.571     56574.498  -5643159.571
10 0 59555  24582.000000  0   -4645158.403    312131.317  -5084935.725
10 0 59555  24702.000000  0   -5244348.378    573497.860  -4437741.037
10 0 59555  24822.000000  0   -5747758.912    834538.399  -3712814.768
10 0 59555  24942.000000  0   -6146584.885   1088943.437  -2922783.319
10 0 59555  25062.000000  0   -6433939.960   1330372.915  -2081446.301
10 0 59555  25182.000000  0   -6604988.242   1552603.382  -1203538.019
10 0 59555  25302.000000  0   -6657038.330   1749676.944   -304467.619
10 0 59555  25422.000000  0   -6589594.023   1916046.053    599957.905
10 0 59555  25542.000000  0   -6404360.630   2046711.752   1493818.778
10 0 59555  25662.000000  0   -6105207.904   2137352.328   2361371.348
10 0 59555  25782.000000  0   -5698088.729   2184438.126   3187334.526
10 0 59555  25902.000000  0   -5190915.913   2185328.779   3957166.930
10 0 59555  26022.000000  0   -4593400.152   2138350.897   4657327.725
10 0 59555  26142.000000  0   -3916855.176   2042854.999   5275515.891
10 0 59555  26262.000000  0   -3173975.495   1899250.575   5800884.930
10 0 59555  26382.000000  0   -2378590.554   1709018.933   6224230.895
10 0 59555  26502.000000  0   -1545399.676   1474702.483   6538148.598
10 0 59555  26622.000000  0    -689695.532   1199871.155   6737154.274
10 0 59555  26742.000000  0     172917.820    889067.547   6817774.375
10 0 59555  26862.000000  0    1026808.674    547731.261   6778602.216
10 0 59555  26982.000000  0    1856599.725    182103.930   6620320.830
10 0 59555  27102.000000  0    2647443.754   -200884.069   6345692.374
10 0 59555  27222.000000  0    3385289.736   -593744.040   5959514.223
10 0 59555  27342.000000  0    4057135.240   -988573.659   5468540.037
10 0 59555  27462.000000  0    4651259.767  -1377214.579   4881367.383
10 0 59555  27582.000000  0    5157435.332  -1751419.496   4208293.257
10 0 59555  27702.000000  0    5567111.384  -2103025.051   3461138.179
10 0 59555  27822.000000  0    5873568.400  -2424128.294   2653039.974
10 0 59555  27942.000000  0    6072035.485  -2707261.721   1798221.449
10 0 59555  28062.000000  0    6159770.690  -2945562.143    911736.911
10 0 59555  28182.000000  0    6136101.494  -3132930.330      9200.016
10 0 59555  28302.000000  0    6002422.366  -3264176.016   -893499.424
10 0 59555  28422.000000  0    5762151.006  -3335145.121  -1780485.194
10 0 59555  28542.000000  0    5420642.060  -3342824.817  -2636181.891
10 0 59555  28662.000000  0    4985064.587  -3285425.408  -3445593.914
10 0 59555  28782.000000  0    4464244.608  -3162436.707  -4194571.084
10 0 59555  28902.000000  0    3868477.975  -2974658.491  -4870055.353
10 0 59555  29022.000000  0    3209317.559  -2724203.186  -5460303.799
10 0 59555  29142.000000  0    2499342.495  -2414472.458  -5955083.268
10 0 59555  29262.000000  0    1751915.511  -2050110.210  -6345837.419
10 0 59555  29382.000000  0     980930.106  -1636930.664  -6625825.414
99
